NORAD_CAT_ID,OBJECT_NAME,OBJECT_TYPE,EPOCH,MEAN_MOTION,ECCENTRICITY,INCLINATION,RA_OF_ASC_NODE,ARG_OF_PERICENTER,MEAN_ANOMALY,BSTAR,MEAN_MOTION_DOT,MEAN_MOTION_DDOT,TLE_LINE0,TLE_LINE1,TLE_LINE2,SEMIMAJOR_AXIS,PERIOD,APOGEE,PERIGEE,DECAYED
51146.0,STARLINK-3354,PAYLOAD,2022-10-08 00:30:35,15.08837727,0.0001804,53.2173,144.619,57.8843,302.2324,6.5417e-05,7.53e-06,0.0,0 STARLINK-3354,1 51146U 22005AU  22281.02124516  .00000753  00000-0  65417-4 0  9994,2 51146  53.2173 144.6190 0001804  57.8843 302.2324 15.08837727 41349,6917.887,95.438,541.0,538.504,0.0
51146.0,STARLINK-3354,PAYLOAD,2022-10-08 08:27:31,15.08842189,0.0001805,53.217,143.1321,58.3329,301.7839,0.00015574,2.192e-05,0.0,0 STARLINK-3354,1 51146U 22005AU  22281.35244324  .00002192  00000-0  15574-3 0  9997,2 51146  53.2170 143.1321 0001805  58.3329 301.7839 15.08842189 40276,6917.874,95.437,540.987,538.49,0.0
51146.0,STARLINK-3354,PAYLOAD,2022-10-08 19:35:13,15.08837665,0.0001833,53.2174,141.0512,59.2392,300.8781,0.0001401,1.942e-05,0.0,0 STARLINK-3354,1 51146U 22005AU  22281.81612722  .00001942  00000-0  14010-3 0  9995,2 51146  53.2174 141.0512 0001833  59.2392 300.8781 15.08837665 40347,6917.888000000001,95.438,541.021,538.484,0.0
51146.0,STARLINK-3354,PAYLOAD,2022-10-09 08:18:18,15.08839989,0.0001814,53.2172,138.6718,60.2387,299.8786,0.00019793,2.863e-05,0.0,0 STARLINK-3354,1 51146U 22005AU  22282.34604827  .00002863  00000-0  19793-3 0  9997,2 51146  53.2172 138.6718 0001814  60.2387 299.8786 15.08839989 41546,6917.88,95.438,541.0,538.491,0.0
51146.0,STARLINK-3354,PAYLOAD,2022-10-09 21:01:23,15.08838586,0.0001743,53.217,136.2944,52.3721,307.743,0.00016005,2.26e-05,0.0,0 STARLINK-3354,1 51146U 22005AU  22282.87596937  .00002260  00000-0  16005-3 0  9991,2 51146  53.2170 136.2944 0001743  52.3721 307.7430 15.08838586 40506,6917.885,95.438,540.955,538.544,0.0
51146.0,STARLINK-3354,PAYLOAD,2022-10-10 00:12:10,15.08839176,0.000172,53.217,135.6997,51.3032,308.8114,0.00017952,2.57e-05,0.0,0 STARLINK-3354,1 51146U 22005AU  22283.00844945  .00002570  00000-0  17952-3 0  9998,2 51146  53.2170 135.6997 0001720  51.3032 308.8114 15.08839176 40525,6917.8830000000025,95.438,540.938,538.558,0.0
51146.0,STARLINK-3354,PAYLOAD,2022-10-10 19:16:47,15.08843063,0.0001633,53.2171,132.1287,51.4825,308.6313,0.00020673,3.004e-05,0.0,0 STARLINK-3354,1 51146U 22005AU  22283.80332751  .00003004  00000-0  20673-3 0  9990,2 51146  53.2171 132.1287 0001633  51.4825 308.6313 15.08843063 41760,6917.871,95.437,540.866,538.606,0.0
51146.0,STARLINK-3354,PAYLOAD,2022-10-11 00:02:56,15.08842788,0.0001652,53.2171,131.2374,51.2702,308.8437,0.0001401,1.943e-05,0.0,0 STARLINK-3354,1 51146U 22005AU  22284.00204733  .00001943  00000-0  14010-3 0  9999,2 51146  53.2171 131.2374 0001652  51.2702 308.8437 15.08842788 40671,6917.871999999999,95.437,540.88,538.594,0.0
51146.0,STARLINK-3354,PAYLOAD,2022-10-11 14:21:25,15.08827502,0.0001439,53.2174,128.559,55.5617,304.5511,-8.8355e-05,-1.693e-05,0.0,0 STARLINK-3354,1 51146U 22005AU  22284.59821544 -.00001693  00000-0 -88355-4 0  9996,2 51146  53.2174 128.5590 0001439  55.5617 304.5511 15.08827502 41885,6917.919,95.438,540.779,538.788,0.0
51146.0,STARLINK-3354,PAYLOAD,2022-10-12 14:12:13,15.08843494,0.0001625,53.217,124.1007,76.7338,283.3835,-0.00011949,-2.189e-05,0.0,0 STARLINK-3354,1 51146U 22005AU  22285.59182182 -.00002189  00000-0 -11949-3 0  9990,2 51146  53.2170 124.1007 0001625  76.7338 283.3835 15.08843494 42037,6917.87,95.437,540.859,538.611,0.0
51146.0,STARLINK-3354,PAYLOAD,2022-10-13 12:27:37,15.08843718,0.0001614,53.2172,119.9378,52.3798,307.7340000000001,0.00030002,4.491e-05,0.0,0 STARLINK-3354,1 51146U 22005AU  22286.51917965  .00004491  00000-0  30002-3 0  9995,2 51146  53.2172 119.9378 0001614  52.3798 307.7340 15.08843718 41052,6917.869000000002,95.437,540.851,538.617,0.0
51146.0,STARLINK-3354,PAYLOAD,2022-10-13 15:38:23,15.08847037,0.0001676999999999,53.2171,119.3429,52.9767,307.1378,0.00039531,6.01e-05,0.0,0 STARLINK-3354,1 51146U 22005AU  22286.65165915  .00006010  00000-0  39531-3 0  9995,2 51146  53.2171 119.3429 0001677  52.9767 307.1378 15.08847037 42192,6917.859,95.437,540.884,538.564,0.0
51146.0,STARLINK-3354,PAYLOAD,2022-10-13 18:49:09,15.08840675,0.0001793,53.2169,118.7485,47.9723,312.1421,0.00023181,3.403e-05,0.0,0 STARLINK-3354,1 51146U 22005AU  22286.78414289  .00003403  00000-0  23181-3 0  9997,2 51146  53.2169 118.7485 0001793  47.9723 312.1421 15.08840675 41093,6917.878000000002,95.438,540.984,538.503,0.0
51146.0,STARLINK-3354,PAYLOAD,2022-10-13 21:59:56,15.08842176,0.0001819,53.2173,118.1538,50.5457,309.5696,0.00023907,3.519e-05,0.0,0 STARLINK-3354,1 51146U 22005AU  22286.91662292  .00003519  00000-0  23907-3 0  9995,2 51146  53.2173 118.1538 0001819  50.5457 309.5696 15.08842176 42233,6917.874,95.437,540.997,538.48,0.0
51146.0,STARLINK-3354,PAYLOAD,2022-10-14 12:18:23,15.08856164,0.0001706,53.2168,115.477,52.2227,307.8919,0.00038547,5.855e-05,0.0,0 STARLINK-3354,1 51146U 22005AU  22287.51277552  .00005855  00000-0  38547-3 0  9994,2 51146  53.2168 115.4770 0001706  52.2227 307.8919 15.08856164 42325,6917.831,95.437,540.876,538.516,0.0
51146.0,STARLINK-3354,PAYLOAD,2022-10-14 18:39:56,15.08843818,0.0001495,53.2164,114.2873,49.7907,310.3216,3.9623e-05,3.43e-06,0.0,0 STARLINK-3354,1 51146U 22005AU  22287.77773678  .00000343  00000-0  39623-4 0  9996,2 51146  53.2164 114.2873 0001495  49.7907 310.3216 15.08843818 42368,6917.869000000002,95.437,540.768,538.6990000000002,0.0
51146.0,STARLINK-3354,PAYLOAD,2022-10-15 12:09:10,15.08850658,0.0001585999999999,53.2169,111.0168,50.0017,310.1114,0.00015393,2.163e-05,0.0,0 STARLINK-3354,1 51146U 22005AU  22288.50637339  .00002163  00000-0  15393-3 0  9990,2 51146  53.2169 111.0168 0001586  50.0017 310.1114 15.08850658 41356,6917.848000000001,95.437,540.81,538.616,0.0
51146.0,STARLINK-3354,PAYLOAD,2022-10-15 18:30:43,15.08840117,0.000195,53.2171,109.8278,50.8707,309.2458,0.00096967,0.00015178,0.0,0 STARLINK-3354,1 51146U 22005AU  22288.77134137  .00015178  00000-0  96967-3 0  9993,2 51146  53.2171 109.8278 0001950  50.8707 309.2458 15.08840117 41398,6917.88,95.438,541.094,538.396,0.0
51146.0,STARLINK-3354,PAYLOAD,2022-10-15 20:06:05,15.08857383,0.0001647,53.2171,109.5302,48.5165,311.5968,0.00023924,3.523e-05,0.0,0 STARLINK-3354,1 51146U 22005AU  22288.83756876  .00003523  00000-0  23924-3 0  9994,2 51146  53.2171 109.5302 0001647  48.5165 311.5968 15.08857383 42529,6917.8269999999975,95.436,540.832,538.553,0.0
51146.0,STARLINK-3354,PAYLOAD,2022-10-16 11:59:58,15.08833372,0.0001702,53.2173,106.5566,50.637,309.4772,-0.00014112,-2.533e-05,0.0,0 STARLINK-3354,1 51146U 22005AU  22289.49997800 -.00002533  00000-0 -14112-3 0  9992,2 51146  53.2173 106.5566 0001702  50.6370 309.4772 15.08833372 42626,6917.901,95.438,540.943,538.5880000000002,0.0
51146.0,STARLINK-3354,PAYLOAD,2022-10-16 18:21:31,15.0883309,0.0001692,53.2184,105.3672,52.2524,307.8621,-1.2074000000000003e-05,-4.8e-06,0.0,0 STARLINK-3354,1 51146U 22005AU  22289.76494249 -.00000480  00000-0 -12074-4 0  9996,2 51146  53.2184 105.3672 0001692  52.2524 307.8621 15.08833090 41542,6917.901999999999,95.438,540.937,538.596,0.0
51146.0,STARLINK-3354,PAYLOAD,2022-10-17 11:50:45,15.08843201,0.0001719,53.2183,102.0961,52.6948,307.4201,-8.8657e-06,-4.29e-06,0.0,0 STARLINK-3354,1 51146U 22005AU  22290.49357668 -.00000429  00000-0 -88657-5 0  9995,2 51146  53.2183 102.0961 0001719  52.6948 307.4201 15.08843201 42771,6917.871,95.437,540.925,538.5459999999998,0.0
51146.0,STARLINK-3354,PAYLOAD,2022-10-17 18:12:17,15.08847874,0.0001735,53.2185,100.9068,52.6809,307.4341,3.2929000000000007e-06,-2.36e-06,0.0,0 STARLINK-3354,1 51146U 22005AU  22290.75853248 -.00000236  00000-0  32929-5 0  9995,2 51146  53.2185 100.9068 0001735  52.6809 307.4341 15.08847874 41697,6917.856,95.437,540.922,538.521,0.0
51146.0,STARLINK-3354,PAYLOAD,2022-10-18 11:41:32,15.088335999999998,0.0001766,53.2184,97.6358,51.9351,308.1801,9.1472e-05,1.168e-05,0.0,0 STARLINK-3354,1 51146U 22005AU  22291.48717825  .00001168  00000-0  91472-4 0  9997,2 51146  53.2184  97.6358 0001766  51.9351 308.1801 15.08833600 41802,6917.9,95.438,540.987,538.543,0.0
51146.0,STARLINK-3354,PAYLOAD,2022-10-18 18:03:04,15.08834431,0.0001786,53.2185,96.4465,51.8928,308.2225,9.0972e-05,1.16e-05,0.0,0 STARLINK-3354,1 51146U 22005AU  22291.75213877  .00001160  00000-0  90972-4 0  9991,2 51146  53.2185  96.4465 0001786  51.8928 308.2225 15.08834431 42962,6917.897,95.438,540.998,538.5269999999998,0.0
51146.0,STARLINK-3354,PAYLOAD,2022-10-19 11:32:19,15.08837923,0.0001851999999999,53.2187,93.1751,53.4568,306.6595,-8.9388e-06,-4.3e-06,0.0,0 STARLINK-3354,1 51146U 22005AU  22292.48078092 -.00000430  00000-0 -89388-5 0  9991,2 51146  53.2187  93.1751 0001852  53.4568 306.6595 15.08837923 41957,6917.887,95.438,541.033,538.471,0.0
51146.0,STARLINK-3354,PAYLOAD,2022-10-19 19:29:15,15.08834662,0.0001867,53.2187,91.6884,52.5805,307.5357,-3.8459e-05,-9e-06,0.0,0 STARLINK-3354,1 51146U 22005AU  22292.81198429 -.00000900  00000-0 -38459-4 0  9999,2 51146  53.2187  91.6884 0001867  52.5805 307.5357 15.08834662 43121,6917.897,95.438,541.053,538.47,0.0
51146.0,STARLINK-3354,PAYLOAD,2022-10-20 19:20:01,15.08840531,0.0001889999999999,53.219,87.228,50.479,309.6369,6.714e-05,7.81e-06,0.0,0 STARLINK-3354,1 51146U 22005AU  22293.80557777  .00000781  00000-0  67140-4 0  9998,2 51146  53.2190  87.2280 0001890  50.4790 309.6369 15.08840531 42152,6917.879,95.438,541.0509999999998,538.436,0.0
51146.0,STARLINK-3354,PAYLOAD,2022-10-21 09:38:30,15.08830875,0.0001972,53.2192,84.5514,49.5298,310.5866,4.2714e-06,-2.2e-06,0.0,0 STARLINK-3354,1 51146U 22005AU  22294.40174710 -.00000220  00000-0  42714-5 0  9997,2 51146  53.2192  84.5514 0001972  49.5298 310.5866 15.08830875 43364,6917.908,95.438,541.137,538.409,0.0
